ONEWEB-0668             
1 56711U 23068B   25190.55833693  .00000020  00000+0  18594-4 0  9990
2 56711  87.9066 297.0462 0001640  85.9609 274.1710 13.16594407106690
ONEWEB-0676             
1 56712U 23068C   25190.53855919  .00000057  00000+0  11632-3 0  9999
2 56712  87.9058 297.0755 0002101 113.6878 246.4473 13.16595366106612
ONEWEB-0677             
1 56713U 23068D   25190.46300597  .00000051  00000+0  93253-4 0  9993
2 56713  87.9262 342.7061 0001642 102.0783 258.0534 13.20770093104560
ONEWEB-0678             
1 56714U 23068E   25190.82596321  .00000118  00000+0  27876-3 0  9997
2 56714  87.9074 327.4378 0002231 100.5179 259.6202 13.15548343104979
ONEWEB-0679             
1 56715U 23068F   25190.35568110  .00000139  00000+0  33005-3 0  9995
2 56715  87.9055 297.1041 0001454 105.8636 254.2655 13.16593851106612
ONEWEB-0680             
1 56716U 23068G   25190.34393960 -.00000212  00000+0 -54575-3 0  9993
2 56716  87.9258 312.3537 0001415  84.3310 275.7985 13.21825832105802
ONEWEB-0681             
1 56717U 23068H   25190.58002854  .00000104  00000+0  21892-3 0  9993
2 56717  87.9267 312.3345 0001838 129.7265 230.4032 13.22338661105825
ONEWEB-0682             
1 56718U 23068J   25190.62392142 -.00000031  00000+0 -11726-3 0  9997
2 56718  87.9073 327.5082 0001388  89.2180 270.9109 13.15550737104413
